     2.10           G: GLONASS NAV DATA                     RINEX VERSION / TYPE
teqc  2015Jun23                         20220515 01:26:41UTCPGM / RUN BY / DATE
Linux 2.4.21-27.ELsmp|Opteron|gcc -static|Linux x86_64|=+   COMMENT
  2022     5     5   -9.313225746155D-10                    CORR TO SYSTEM TIME
                                                            END OF HEADER
15 22  5  6 10 45  0.0 9.634345769882D-05-0.000000000000D+00 3.780000000000D+04
    6.808948242188D+03-1.914816856384D+00-0.000000000000D+00 0.000000000000D+00
    1.644147949219D+04-1.615245819092D+00-0.000000000000D+00 0.000000000000D+00
   -1.825609570312D+04-2.166902542114D+00 2.793967723846D-09 0.000000000000D+00
17 22  5  6 10 45  0.0 5.236612632871D-04 2.728484105319D-12 3.780000000000D+04
   -2.048368310547D+04-1.053068161011D+00 9.313225746155D-10 0.000000000000D+00
    1.233710888672D+04 6.349754333496D-01 0.000000000000D+00 4.000000000000D+00
    8.838026855469D+03-3.330908775330D+00-0.000000000000D+00 0.000000000000D+00
18 22  5  6 10 45  0.0 1.159170642495D-04 9.094947017729D-13 3.822000000000D+04
   -6.781470214844D+03-2.656313896179D+00 9.313225746155D-10 0.000000000000D+00
    1.271892968750D+04 1.131410598755D+00 2.793967723846D-09-3.000000000000D+00
    2.106976708984D+04-1.533375740051D+00-0.000000000000D+00 0.000000000000D+00
 4 22  5  6 11 15  0.0 1.401938498020D-04 1.818989403546D-12 3.960000000000D+04
   -2.116195312500D+03 1.920518875122D-01 1.862645149231D-09 0.000000000000D+00
    2.518083251953D+04-4.769344329834D-01 1.862645149231D-09 6.000000000000D+00
    3.542444335938D+03 3.537672996521D+00 1.862645149231D-09 0.000000000000D+00
 3 22  5  6 11 15  0.0 5.618855357170D-05 9.094947017729D-13 3.960000000000D+04
   -8.880053710938D+03 1.391572952271D-01 1.862645149231D-09 0.000000000000D+00
    1.552316748047D+04-2.485614776611D+00 1.862645149231D-09 5.000000000000D+00
    1.826304589844D+04 2.181481361389D+00-0.000000000000D+00 0.000000000000D+00
 5 22  5  6 11 15  0.0 9.239744395018D-05 9.094947017729D-13 3.960000000000D+04
    5.720575683594D+03 1.157970428467D-01 0.000000000000D+00 0.000000000000D+00
    2.108623876953D+04 1.808589935303D+00 0.000000000000D+00 1.000000000000D+00
   -1.316554150391D+04 2.941164016724D+00 2.793967723846D-09 0.000000000000D+00
15 22  5  6 11 15  0.0 9.634252637625D-05-9.094947017729D-13 3.960000000000D+04
    2.812844238281D+03-2.499404907227D+00-0.000000000000D+00 0.000000000000D+00
    1.356588037109D+04-1.538022994995D+00-9.313225746155D-10 0.000000000000D+00
   -2.139916845703D+04-1.302667617798D+00 1.862645149231D-09 0.000000000000D+00
17 22  5  6 11 15  0.0 5.236668512225D-04 2.728484105319D-12 3.960000000000D+04
   -2.160805908203D+04-2.016887664795D-01 9.313225746155D-10 0.000000000000D+00
    1.327592236328D+04 3.654651641846D-01-0.000000000000D+00 4.000000000000D+00
    2.577662109375D+03-3.579802513123D+00-0.000000000000D+00 0.000000000000D+00
18 22  5  6 11 15  0.0 1.159198582172D-04 9.094947017729D-13 3.960000000000D+04
   -1.102832910156D+04-2.031798362732D+00 1.862645149231D-09 0.000000000000D+00
    1.493217236328D+04 1.288000106812D+00 1.862645149231D-09-3.000000000000D+00
    1.753293652344D+04-2.370907783508D+00-0.000000000000D+00 0.000000000000D+00
 4 22  5  6 11 45  0.0 1.401975750923D-04 1.818989403546D-12 4.140000000000D+04
   -1.891504882812D+03 1.878166198730D-02 1.862645149231D-09 0.000000000000D+00
    2.353712597656D+04-1.332406044006D+00 1.862645149231D-09 6.000000000000D+00
    9.691307128906D+03 3.250138282776D+00 9.313225746155D-10 0.000000000000D+00
 5 22  5  6 11 45  0.0 9.239930659533D-05 9.094947017729D-13 4.140000000000D+04
    6.118410644531D+03 2.882890701294D-01 9.313225746155D-10 0.000000000000D+00
    2.362843457031D+04 9.943027496338D-01 9.313225746155D-10 1.000000000000D+00
   -7.430946289062D+03 3.389204978943D+00 2.793967723846D-09 0.000000000000D+00
 3 22  5  6 11 45  0.0 5.619134753942D-05 9.094947017729D-13 4.140000000000D+04
   -8.989464843750D+03-2.786664962769D-01 1.862645149231D-09 0.000000000000D+00
    1.062762304688D+04-2.908242225647D+00 9.313225746155D-10 5.000000000000D+00
    2.143769775391D+04 1.323152542114D+00-9.313225746155D-10 0.000000000000D+00
15 22  5  6 11 45  0.0 9.634252637625D-05-9.094947017729D-13 4.140000000000D+04
   -2.067479980469D+03-2.882589340210D+00-9.313225746155D-10 0.000000000000D+00
    1.103801855469D+04-1.239656448364D+00-1.862645149231D-09 0.000000000000D+00
   -2.288496777344D+04-3.374776840210D-01 1.862645149231D-09 0.000000000000D+00
17 22  5  6 11 45  0.0 5.236724391580D-04 2.728484105319D-12 4.140000000000D+04
   -2.126400585938D+04 5.598850250244D-01 0.000000000000D+00 0.000000000000D+00
    1.351075292969D+04-1.392993927002D-01-9.313225746155D-10 4.000000000000D+00
   -3.882415039062D+03-3.551347732544D+00-0.000000000000D+00 0.000000000000D+00
18 22  5  6 11 45  0.0 1.159226521850D-04 9.094947017729D-13 4.140000000000D+04
   -1.401786523438D+04-1.277722358704D+00 1.862645149231D-09 0.000000000000D+00
    1.719915234375D+04 1.185119628906D+00 9.313225746155D-10-3.000000000000D+00
    1.264464355469D+04-3.025338172913D+00-0.000000000000D+00 0.000000000000D+00
19 22  5  6 11 45  0.0-1.880163326859D-04-9.094947017729D-13 4.302000000000D+04
   -7.240957031250D+02-2.471867561340D+00 1.862645149231D-09 0.000000000000D+00
    1.246325585938D+04 1.792215347290D+00 1.862645149231D-09 3.000000000000D+00
    2.223892968750D+04-1.084372520447D+00-0.000000000000D+00 0.000000000000D+00
 4 22  5  6 12 15  0.0 1.402013003826D-04 1.818989403546D-12 4.320000000000D+04
   -2.173376464844D+03-3.611688613892D-01 1.862645149231D-09 0.000000000000D+00
    2.047739404297D+04-2.033332824707D+00 9.313225746155D-10 6.000000000000D+00
    1.509226757812D+04 2.712125778198D+00 0.000000000000D+00 0.000000000000D+00
 5 22  5  6 12 15  0.0 9.240023791790D-05 9.094947017729D-13 4.320000000000D+04
    6.612310546875D+03 2.187824249268D-01 1.862645149231D-09 0.000000000000D+00
    2.462154736328D+04 1.067209243774D-01 9.313225746155D-10 1.000000000000D+00
   -1.122057617188D+03 3.575172424316D+00 1.862645149231D-09 0.000000000000D+00
15 22  5  6 12 15  0.0 9.634159505367D-05-9.094947017729D-13 4.320000000000D+04
   -7.400179199219D+03-2.993331909180D+00-9.313225746155D-10 0.000000000000D+00
    9.187879394531D+03-8.007669448853D-01-1.862645149231D-09 0.000000000000D+00
   -2.259837500000D+04 6.538314819336D-01 9.313225746155D-10 0.000000000000D+00
17 22  5  6 12 15  0.0 5.236780270934D-04 2.728484105319D-12 4.320000000000D+04
   -1.970684375000D+04 1.131984710693D+00-0.000000000000D+00 0.000000000000D+00
    1.267324023438D+04-8.116464614868D-01-1.862645149231D-09 4.000000000000D+00
   -1.004165234375D+04-3.247721672058D+00 0.000000000000D+00 0.000000000000D+00
18 22  5  6 12 15  0.0 1.159263774753D-04 9.094947017729D-13 4.320000000000D+04
   -1.561984521484D+04-5.097684860229D-01 9.313225746155D-10 0.000000000000D+00
    1.903427197266D+04 8.099393844604D-01-0.000000000000D+00-3.000000000000D+00
    6.782023925781D+03-3.446528434753D+00-0.000000000000D+00 0.000000000000D+00
19 22  5  6 12 15  0.0-1.880191266537D-04-9.094947017729D-13 4.320000000000D+04
   -4.672445312500D+03-1.888585090637D+00 1.862645149231D-09 0.000000000000D+00
    1.581948144531D+04 1.892451286316D+00 9.313225746155D-10 3.000000000000D+00
    1.945226318359D+04-1.991806983948D+00-0.000000000000D+00 0.000000000000D+00
 6 22  5  6 12 15  0.0-4.695542156696D-05-1.818989403546D-12 4.443000000000D+04
    1.268089746094D+04 7.732830047607D-01-0.000000000000D+00 0.000000000000D+00
    1.202495703125D+04 2.424757003784D+00-0.000000000000D+00-4.000000000000D+00
   -1.859284375000D+04 2.094189643860D+00 2.793967723846D-09 0.000000000000D+00
 4 22  5  6 12 45  0.0 1.402059569955D-04 1.818989403546D-12 4.500000000000D+04
   -3.271124511719D+03-8.725948333740D-01 1.862645149231D-09 0.000000000000D+00
    1.636261816406D+04-2.493064880371D+00 9.313225746155D-10 6.000000000000D+00
    1.932944091797D+04 1.965447425842D+00-0.000000000000D+00 0.000000000000D+00
 5 22  5  6 12 45  0.0 9.240210056305D-05 9.094947017729D-13 4.500000000000D+04
    6.760157714844D+03-9.232616424561D-02 1.862645149231D-09 0.000000000000D+00
    2.403940185547D+04-7.365427017212D-01 9.313225746155D-10 1.000000000000D+00
    5.273545898438D+03 3.484976768494D+00 1.862645149231D-09 0.000000000000D+00
 6 22  5  6 12 45  0.0-4.695821553469D-05-1.818989403546D-12 4.500000000000D+04
    1.419595361328D+04 8.712501525879D-01 0.000000000000D+00 0.000000000000D+00
    1.578976904297D+04 1.732942581177D+00 0.000000000000D+00-4.000000000000D+00
   -1.415395996094D+04 2.805905342102D+00 2.793967723846D-09 0.000000000000D+00
15 22  5  6 12 45  0.0 9.634066373110D-05-0.000000000000D+00 4.500000000000D+04
   -1.266092041016D+04-2.801387786865D+00-1.862645149231D-09 0.000000000000D+00
    8.178123535156D+03-3.239116668701D-01-1.862645149231D-09 0.000000000000D+00
   -2.056169775391D+04 1.594400405884D+00 0.000000000000D+00 0.000000000000D+00
17 22  5  6 12 45  0.0 5.236836150289D-04 2.728484105319D-12 4.500000000000D+04
   -1.734305371094D+04 1.448594093323D+00-9.313225746155D-10 0.000000000000D+00
    1.054778662109D+04-1.551860809326D+00-1.862645149231D-09 4.000000000000D+00
   -1.542290625000D+04-2.692580223083D+00 0.000000000000D+00 0.000000000000D+00
18 22  5  6 12 45  0.0 1.159291714430D-04 9.094947017729D-13 4.500000000000D+04
   -1.591330664062D+04 1.584234237671D-01 0.000000000000D+00 0.000000000000D+00
    1.997098681641D+04 1.962652206421D-01-9.313225746155D-10-3.000000000000D+00
    3.968789062500D+02-3.602173805237D+00-0.000000000000D+00 0.000000000000D+00
19 22  5  6 12 45  0.0-1.880219206214D-04-9.094947017729D-13 4.500000000000D+04
   -7.460522460938D+03-1.201599121094D+00 1.862645149231D-09 0.000000000000D+00
    1.910567187500D+04 1.710243225098D+00 0.000000000000D+00 3.000000000000D+00
    1.516111132812D+04-2.745164871216D+00-0.000000000000D+00 0.000000000000D+00
